{
  "type": "FeatureCollection",
  "features": [
    {
      "type": "Feature",
      "properties": {
        "norad_id": 39773,
        "name": "EUTELSAT 3B",
        "group": "eutelsat",
        "lat": -0.08434224798294832,
        "lon": -106.73418066081442,
        "alt_km": 35769.2672796816,
        "timestamp": "2025-12-18T10:51:25.461252+00:00",
        "meta_object_name": "EUTELSAT 3B",
        "meta_object_id": "2014-030A",
        "meta_epoch": "2025-12-17T18:28:37.949088",
        "meta_mean_motion": 1.00272044,
        "meta_eccentricity": 0.00042366,
        "meta_inclination": 0.0605,
        "meta_ra_of_asc_node": 0.3978,
        "meta_arg_of_pericenter": 231.5414,
        "meta_mean_anomaly": 134.9492,
        "meta_ephemeris_type": 0,
        "meta_classification_type": "U",
        "meta_norad_cat_id": 39773,
        "meta_element_set_no": 999,
        "meta_rev_at_epoch": 4224,
        "meta_bstar": 0,
        "meta_mean_motion_dot": 4.5e-07,
        "meta_mean_motion_ddot": 0,
        "tle_line1": "1 39773U 14030A   25351.76988367  .00000045  00000+0  00000+0 0  9994",
        "tle_line2": "2 39773   0.0605   0.3978 0004236 231.5414 134.9492  1.00272044 42248"
      },
      "geometry": {
        "type": "Point",
        "coordinates": [
          -106.73418066081442,
          -0.08434224798294832
        ]
      }
    },
    {
      "type": "Feature",
      "properties": {
        "norad_id": 40425,
        "name": "EUTELSAT 115 WEST B",
        "group": "eutelsat",
        "lat": -0.007051055547393876,
        "lon": 135.2392975351138,
        "alt_km": 35786.90353421328,
        "timestamp": "2025-12-18T10:51:25.461264+00:00",
        "meta_object_name": "EUTELSAT 115 WEST B",
        "meta_object_id": "2015-010B",
        "meta_epoch": "2025-12-17T16:12:13.512096",
        "meta_mean_motion": 1.00267064,
        "meta_eccentricity": 4.229e-05,
        "meta_inclination": 0.0106,
        "meta_ra_of_asc_node": 156.1605,
        "meta_arg_of_pericenter": 53.1601,
        "meta_mean_anomaly": 5.3821,
        "meta_ephemeris_type": 0,
        "meta_classification_type": "U",
        "meta_norad_cat_id": 40425,
        "meta_element_set_no": 999,
        "meta_rev_at_epoch": 3957,
        "meta_bstar": 0,
        "meta_mean_motion_dot": 1e-08,
        "meta_mean_motion_ddot": 0,
        "tle_line1": "1 40425U 15010B   25351.67515639  .00000001  00000+0  00000+0 0  9999",
        "tle_line2": "2 40425   0.0106 156.1605 0000422  53.1601   5.3821  1.00267064 39571"
      },
      "geometry": {
        "type": "Point",
        "coordinates": [
          135.2392975351138,
          -0.007051055547393876
        ]
      }
    },
    {
      "type": "Feature",
      "properties": {
        "norad_id": 40875,
        "name": "EUTELSAT 8 WEST B",
        "group": "eutelsat",
        "lat": -0.08612522498282689,
        "lon": -117.84958584323745,
        "alt_km": 35769.67844872326,
        "timestamp": "2025-12-18T10:51:25.461277+00:00",
        "meta_object_name": "EUTELSAT 8 WEST B",
        "meta_object_id": "2015-039B",
        "meta_epoch": "2025-12-17T18:25:30.747936",
        "meta_mean_motion": 1.00271856,
        "meta_eccentricity": 0.00043012,
        "meta_inclination": 0.0639,
        "meta_ra_of_asc_node": 351.693,
        "meta_arg_of_pericenter": 276.4787,
        "meta_mean_anomaly": 86.8592,
        "meta_ephemeris_type": 0,
        "meta_classification_type": "U",
        "meta_norad_cat_id": 40875,
        "meta_element_set_no": 999,
        "meta_rev_at_epoch": 3783,
        "meta_bstar": 0,
        "meta_mean_motion_dot": -4e-07,
        "meta_mean_motion_ddot": 0,
        "tle_line1": "1 40875U 15039B   25351.76771699 -.00000040  00000+0  00000+0 0  9993",
        "tle_line2": "2 40875   0.0639 351.6930 0004301 276.4787  86.8592  1.00271856 37839"
      },
      "geometry": {
        "type": "Point",
        "coordinates": [
          -117.84958584323745,
          -0.08612522498282689
        ]
      }
    },
    {
      "type": "Feature",
      "properties": {
        "norad_id": 41310,
        "name": "EUTELSAT 9B",
        "group": "eutelsat",
        "lat": -0.032595677279680844,
        "lon": -100.86463440514714,
        "alt_km": 35767.63494864131,
        "timestamp": "2025-12-18T10:51:25.461289+00:00",
        "meta_object_name": "EUTELSAT 9B",
        "meta_object_id": "2016-005A",
        "meta_epoch": "2025-12-17T18:30:15.294240",
        "meta_mean_motion": 1.00271916,
        "meta_eccentricity": 0.0004478,
        "meta_inclination": 0.0567,
        "meta_ra_of_asc_node": 69.7929,
        "meta_arg_of_pericenter": 204.0571,
        "meta_mean_anomaly": 99.3453,
        "meta_ephemeris_type": 0,
        "meta_classification_type": "U",
        "meta_norad_cat_id": 41310,
        "meta_element_set_no": 999,
        "meta_rev_at_epoch": 3629,
        "meta_bstar": 0,
        "meta_mean_motion_dot": 8.7e-07,
        "meta_mean_motion_ddot": 0,
        "tle_line1": "1 41310U 16005A   25351.77101035  .00000087  00000+0  00000+0 0  9994",
        "tle_line2": "2 41310   0.0567  69.7929 0004478 204.0571  99.3453  1.00271916 36293"
      },
      "geometry": {
        "type": "Point",
        "coordinates": [
          -100.86463440514714,
          -0.032595677279680844
        ]
      }
    },
    {
      "type": "Feature",
      "properties": {
        "norad_id": 41382,
        "name": "EUTELSAT 65 WEST A",
        "group": "eutelsat",
        "lat": -0.04544338899649488,
        "lon": -175.08470810427266,
        "alt_km": 35786.9263874525,
        "timestamp": "2025-12-18T10:51:25.461301+00:00",
        "meta_object_name": "EUTELSAT 65 WEST A",
        "meta_object_id": "2016-014A",
        "meta_epoch": "2025-12-17T18:09:09.814176",
        "meta_mean_motion": 1.00270073,
        "meta_eccentricity": 0.00023147,
        "meta_inclination": 0.0567,
        "meta_ra_of_asc_node": 325.978,
        "meta_arg_of_pericenter": 310.7281,
        "meta_mean_anomaly": 17.001,
        "meta_ephemeris_type": 0,
        "meta_classification_type": "U",
        "meta_norad_cat_id": 41382,
        "meta_element_set_no": 999,
        "meta_rev_at_epoch": 3571,
        "meta_bstar": 0,
        "meta_mean_motion_dot": -2.51e-06,
        "meta_mean_motion_ddot": 0,
        "tle_line1": "1 41382U 16014A   25351.75636359 -.00000251  00000+0  00000+0 0  9997",
        "tle_line2": "2 41382   0.0567 325.9780 0002314 310.7281  17.0010  1.00270073 35719"
      },
      "geometry": {
        "type": "Point",
        "coordinates": [
          -175.08470810427266,
          -0.04544338899649488
        ]
      }
    },
    {
      "type": "Feature",
      "properties": {
        "norad_id": 41589,
        "name": "EUTELSAT 117 WEST B",
        "group": "eutelsat",
        "lat": -0.007477378701180844,
        "lon": 133.16504517899847,
        "alt_km": 35786.23705950947,
        "timestamp": "2025-12-18T10:51:25.461314+00:00",
        "meta_object_name": "EUTELSAT 117 WEST B",
        "meta_object_id": "2016-038B",
        "meta_epoch": "2025-12-17T21:19:49.567296",
        "meta_mean_motion": 1.00271876,
        "meta_eccentricity": 3.601e-05,
        "meta_inclination": 0.0113,
        "meta_ra_of_asc_node": 157.4202,
        "meta_arg_of_pericenter": 73.0441,
        "meta_mean_anomaly": 59.2611,
        "meta_ephemeris_type": 0,
        "meta_classification_type": "U",
        "meta_norad_cat_id": 41589,
        "meta_element_set_no": 999,
        "meta_rev_at_epoch": 3484,
        "meta_bstar": 0,
        "meta_mean_motion_dot": 1.3e-07,
        "meta_mean_motion_ddot": 0,
        "tle_line1": "1 41589U 16038B   25351.88876814  .00000013  00000+0  00000+0 0  9993",
        "tle_line2": "2 41589   0.0113 157.4202 0000360  73.0441  59.2611  1.00271876 34848"
      },
      "geometry": {
        "type": "Point",
        "coordinates": [
          133.16504517899847,
          -0.007477378701180844
        ]
      }
    },
    {
      "type": "Feature",
      "properties": {
        "norad_id": 42741,
        "name": "EUTELSAT 172B",
        "group": "eutelsat",
        "lat": 0.010396873076516865,
        "lon": 62.15128259977851,
        "alt_km": 35785.173204064275,
        "timestamp": "2025-12-18T10:51:25.461327+00:00",
        "meta_object_name": "EUTELSAT 172B",
        "meta_object_id": "2017-029B",
        "meta_epoch": "2025-12-17T19:16:48.336672",
        "meta_mean_motion": 1.00272275,
        "meta_eccentricity": 2.088e-05,
        "meta_inclination": 0.0467,
        "meta_ra_of_asc_node": 146.77,
        "meta_arg_of_pericenter": 308.0341,
        "meta_mean_anomaly": 93.0643,
        "meta_ephemeris_type": 0,
        "meta_classification_type": "U",
        "meta_norad_cat_id": 42741,
        "meta_element_set_no": 999,
        "meta_rev_at_epoch": 3191,
        "meta_bstar": 0,
        "meta_mean_motion_dot": 2e-07,
        "meta_mean_motion_ddot": 0,
        "tle_line1": "1 42741U 17029B   25351.80333723  .00000020  00000+0  00000+0 0  9992",
        "tle_line2": "2 42741   0.0467 146.7700 0000208 308.0341  93.0643  1.00272275 31916"
      },
      "geometry": {
        "type": "Point",
        "coordinates": [
          62.15128259977851,
          0.010396873076516865
        ]
      }
    }
  ]
}